CCSDS_OMM_VERS = 2.0
CREATION_DATE  = 
ORIGINATOR     = 

OBJECT_NAME    = AETHER-11
OBJECT_ID      = 2026-004V
CENTER_NAME    = EARTH
REF_FRAME      = TEME
TIME_SYSTEM    = UTC
MEAN_ELEMENT_THEORY = SGP/SGP4

EPOCH          = 2026-02-08T14:06:56.790720
MEAN_MOTION    = 14.88035941
ECCENTRICITY   = .00047441
INCLINATION    = 97.8013
RA_OF_ASC_NODE = 40.2965
ARG_OF_PERICENTER = 166.9330
MEAN_ANOMALY   = 193.2011

EPHEMERIS_TYPE = 0
CLASSIFICATION_TYPE = U
NORAD_CAT_ID   = 67382
ELEMENT_SET_NO = 999
REV_AT_EPOCH   = 416
BSTAR          = .28073701E-3
MEAN_MOTION_DOT = .2525E-4
MEAN_MOTION_DDOT = 0

CCSDS_OMM_VERS = 2.0
CREATION_DATE  = 
ORIGINATOR     = 

OBJECT_NAME    = AETHER-12
OBJECT_ID      = 2026-004W
CENTER_NAME    = EARTH
REF_FRAME      = TEME
TIME_SYSTEM    = UTC
MEAN_ELEMENT_THEORY = SGP/SGP4

EPOCH          = 2026-02-08T14:14:19.570848
MEAN_MOTION    = 14.87765159
ECCENTRICITY   = .00050425
INCLINATION    = 97.7989
RA_OF_ASC_NODE = 40.2835
ARG_OF_PERICENTER = 182.2782
MEAN_ANOMALY   = 177.8412

EPHEMERIS_TYPE = 0
CLASSIFICATION_TYPE = U
NORAD_CAT_ID   = 67383
ELEMENT_SET_NO = 999
REV_AT_EPOCH   = 416
BSTAR          = .29394637E-3
MEAN_MOTION_DOT = .2629E-4
MEAN_MOTION_DDOT = 0

CCSDS_OMM_VERS = 2.0
CREATION_DATE  = 
ORIGINATOR     = 

OBJECT_NAME    = TWILIGHT X
OBJECT_ID      = 2026-004X
CENTER_NAME    = EARTH
REF_FRAME      = TEME
TIME_SYSTEM    = UTC
MEAN_ELEMENT_THEORY = SGP/SGP4

EPOCH          = 2026-02-08T14:02:59.233920
MEAN_MOTION    = 14.88196650
ECCENTRICITY   = .0004099
INCLINATION    = 97.7987
RA_OF_ASC_NODE = 40.2937
ARG_OF_PERICENTER = 169.0161
MEAN_ANOMALY   = 191.1146

EPHEMERIS_TYPE = 0
CLASSIFICATION_TYPE = U
NORAD_CAT_ID   = 67384
ELEMENT_SET_NO = 999
REV_AT_EPOCH   = 416
BSTAR          = .65088634E-3
MEAN_MOTION_DOT = .5952E-4
MEAN_MOTION_DDOT = 0

CCSDS_OMM_VERS = 2.0
CREATION_DATE  = 
ORIGINATOR     = 

OBJECT_NAME    = TWILIGHT Y
OBJECT_ID      = 2026-004Y
CENTER_NAME    = EARTH
REF_FRAME      = TEME
TIME_SYSTEM    = UTC
MEAN_ELEMENT_THEORY = SGP/SGP4

EPOCH          = 2026-02-08T13:59:56.679360
MEAN_MOTION    = 14.88458494
ECCENTRICITY   = .00042211
INCLINATION    = 97.7999
RA_OF_ASC_NODE = 40.2993
ARG_OF_PERICENTER = 161.1778
MEAN_ANOMALY   = 198.9596

EPHEMERIS_TYPE = 0
CLASSIFICATION_TYPE = U
NORAD_CAT_ID   = 67385
ELEMENT_SET_NO = 999
REV_AT_EPOCH   = 416
BSTAR          = .63374189E-3
MEAN_MOTION_DOT = .5831E-4
MEAN_MOTION_DDOT = 0

CCSDS_OMM_VERS = 2.0
CREATION_DATE  = 
ORIGINATOR     = 

OBJECT_NAME    = TWILIGHT Z
OBJECT_ID      = 2026-004Z
CENTER_NAME    = EARTH
REF_FRAME      = TEME
TIME_SYSTEM    = UTC
MEAN_ELEMENT_THEORY = SGP/SGP4

EPOCH          = 2026-02-08T13:58:19.338528
MEAN_MOTION    = 14.88367750
ECCENTRICITY   = .00029465
INCLINATION    = 97.7981
RA_OF_ASC_NODE = 40.2968
ARG_OF_PERICENTER = 159.4223
MEAN_ANOMALY   = 200.7113

EPHEMERIS_TYPE = 0
CLASSIFICATION_TYPE = U
NORAD_CAT_ID   = 67386
ELEMENT_SET_NO = 999
REV_AT_EPOCH   = 416
BSTAR          = .29756325E-3
MEAN_MOTION_DOT = .2702E-4
MEAN_MOTION_DDOT = 0

CCSDS_OMM_VERS = 2.0
CREATION_DATE  = 
ORIGINATOR     = 

OBJECT_NAME    = LEMUR-2-KATIE
OBJECT_ID      = 2026-004AA
CENTER_NAME    = EARTH
REF_FRAME      = TEME
TIME_SYSTEM    = UTC
MEAN_ELEMENT_THEORY = SGP/SGP4

EPOCH          = 2026-02-08T13:50:38.804064
MEAN_MOTION    = 14.88762040
ECCENTRICITY   = .00041168
INCLINATION    = 97.8031
RA_OF_ASC_NODE = 40.3142
ARG_OF_PERICENTER = 133.7966
MEAN_ANOMALY   = 226.3593

EPHEMERIS_TYPE = 0
CLASSIFICATION_TYPE = U
NORAD_CAT_ID   = 67387
ELEMENT_SET_NO = 999
REV_AT_EPOCH   = 416
BSTAR          = .62092942E-3
MEAN_MOTION_DOT = .5755E-4
MEAN_MOTION_DDOT = 0

CCSDS_OMM_VERS = 2.0
CREATION_DATE  = 
ORIGINATOR     = 

OBJECT_NAME    = LEMUR-2-HCS-BAZUS
OBJECT_ID      = 2026-004AB
CENTER_NAME    = EARTH
REF_FRAME      = TEME
TIME_SYSTEM    = UTC
MEAN_ELEMENT_THEORY = SGP/SGP4

EPOCH          = 2026-02-08T13:47:33.128736
MEAN_MOTION    = 14.88860479
ECCENTRICITY   = .0003629
INCLINATION    = 97.8019
RA_OF_ASC_NODE = 40.3146
ARG_OF_PERICENTER = 124.5552
MEAN_ANOMALY   = 235.6008

EPHEMERIS_TYPE = 0
CLASSIFICATION_TYPE = U
NORAD_CAT_ID   = 67388
ELEMENT_SET_NO = 999
REV_AT_EPOCH   = 416
BSTAR          = .57951396E-3
MEAN_MOTION_DOT = .538E-4
MEAN_MOTION_DDOT = 0

CCSDS_OMM_VERS = 2.0
CREATION_DATE  = 
ORIGINATOR     = 

OBJECT_NAME    = TWILIGHT AC
OBJECT_ID      = 2026-004AC
CENTER_NAME    = EARTH
REF_FRAME      = TEME
TIME_SYSTEM    = UTC
MEAN_ELEMENT_THEORY = SGP/SGP4

EPOCH          = 2026-02-08T13:58:21.370656
MEAN_MOTION    = 15.17199818
ECCENTRICITY   = .0005248
INCLINATION    = 97.4579
RA_OF_ASC_NODE = 40.5002
ARG_OF_PERICENTER = 76.5286
MEAN_ANOMALY   = 283.6532

EPHEMERIS_TYPE = 0
CLASSIFICATION_TYPE = U
NORAD_CAT_ID   = 67389
ELEMENT_SET_NO = 999
REV_AT_EPOCH   = 424
BSTAR          = .28763616E-3
MEAN_MOTION_DOT = .5651E-4
MEAN_MOTION_DDOT = 0

CCSDS_OMM_VERS = 2.0
CREATION_DATE  = 
ORIGINATOR     = 

OBJECT_NAME    = CONNECTA IOT-16
OBJECT_ID      = 2026-004AD
CENTER_NAME    = EARTH
REF_FRAME      = TEME
TIME_SYSTEM    = UTC
MEAN_ELEMENT_THEORY = SGP/SGP4

EPOCH          = 2026-02-08T12:24:07.746048
MEAN_MOTION    = 15.16898741
ECCENTRICITY   = .00057088
INCLINATION    = 97.4584
RA_OF_ASC_NODE = 40.4359
ARG_OF_PERICENTER = 72.0551
MEAN_ANOMALY   = 288.1304

EPHEMERIS_TYPE = 0
CLASSIFICATION_TYPE = U
NORAD_CAT_ID   = 67390
ELEMENT_SET_NO = 999
REV_AT_EPOCH   = 423
BSTAR          = .46187914E-3
MEAN_MOTION_DOT = .9041E-4
MEAN_MOTION_DDOT = 0

CCSDS_OMM_VERS = 2.0
CREATION_DATE  = 
ORIGINATOR     = 

OBJECT_NAME    = FLAMINGO-1
OBJECT_ID      = 2026-004AE
CENTER_NAME    = EARTH
REF_FRAME      = TEME
TIME_SYSTEM    = UTC
MEAN_ELEMENT_THEORY = SGP/SGP4

EPOCH          = 2026-02-08T13:53:17.278944
MEAN_MOTION    = 15.17284686
ECCENTRICITY   = .00067243
INCLINATION    = 97.4531
RA_OF_ASC_NODE = 40.4871
ARG_OF_PERICENTER = 65.6837
MEAN_ANOMALY   = 294.5098

EPHEMERIS_TYPE = 0
CLASSIFICATION_TYPE = U
NORAD_CAT_ID   = 67391
ELEMENT_SET_NO = 999
REV_AT_EPOCH   = 424
BSTAR          = .3866737E-3
MEAN_MOTION_DOT = .7642E-4
MEAN_MOTION_DDOT = 0

CCSDS_OMM_VERS = 2.0
CREATION_DATE  = 
ORIGINATOR     = 

OBJECT_NAME    = HAWK-13A
OBJECT_ID      = 2026-004AF
CENTER_NAME    = EARTH
REF_FRAME      = TEME
TIME_SYSTEM    = UTC
MEAN_ELEMENT_THEORY = SGP/SGP4

EPOCH          = 2026-02-08T12:05:40.200864
MEAN_MOTION    = 15.18164991
ECCENTRICITY   = .00068177
INCLINATION    = 97.4420
RA_OF_ASC_NODE = 40.3628
ARG_OF_PERICENTER = 78.2978
MEAN_ANOMALY   = 281.9021

EPHEMERIS_TYPE = 0
CLASSIFICATION_TYPE = U
NORAD_CAT_ID   = 67392
ELEMENT_SET_NO = 999
REV_AT_EPOCH   = 423
BSTAR          = .11281526E-2
MEAN_MOTION_DOT = .23046E-3
MEAN_MOTION_DDOT = 0

CCSDS_OMM_VERS = 2.0
CREATION_DATE  = 
ORIGINATOR     = 

OBJECT_NAME    = HAWK-13C
OBJECT_ID      = 2026-004AG
CENTER_NAME    = EARTH
REF_FRAME      = TEME
TIME_SYSTEM    = UTC
MEAN_ELEMENT_THEORY = SGP/SGP4

EPOCH          = 2026-02-08T13:39:58.224960
MEAN_MOTION    = 15.18037188
ECCENTRICITY   = .00074473
INCLINATION    = 97.4574
RA_OF_ASC_NODE = 40.5402
ARG_OF_PERICENTER = 71.5244
MEAN_ANOMALY   = 288.6799

EPHEMERIS_TYPE = 0
CLASSIFICATION_TYPE = U
NORAD_CAT_ID   = 67393
ELEMENT_SET_NO = 999
REV_AT_EPOCH   = 424
BSTAR          = .52224111E-3
MEAN_MOTION_DOT = .10577E-3
MEAN_MOTION_DDOT = 0

