AETHER-11               
1 67382U 26004V   26039.58815730  .00002525  00000+0  28074-3 0  9992
2 67382  97.8013  40.2965 0004744 166.9330 193.2011 14.88035941  4160
AETHER-12               
1 67383U 26004W   26039.59328207  .00002629  00000+0  29395-3 0  9994
2 67383  97.7989  40.2835 0005042 182.2782 177.8412 14.87765159  4165
TWILIGHT X              
1 67384U 26004X   26039.58540780  .00005952  00000+0  65089-3 0  9998
2 67384  97.7987  40.2937 0004099 169.0161 191.1146 14.88196650  4160
TWILIGHT Y              
1 67385U 26004Y   26039.58329490  .00005831  00000+0  63374-3 0  9993
2 67385  97.7999  40.2993 0004221 161.1778 198.9596 14.88458494  4161
TWILIGHT Z              
1 67386U 26004Z   26039.58216827  .00002702  00000+0  29756-3 0  9993
2 67386  97.7981  40.2968 0002946 159.4223 200.7113 14.88367750  4163
LEMUR-2-KATIE           
1 67387U 26004AA  26039.57683801  .00005755  00000+0  62093-3 0  9995
2 67387  97.8031  40.3142 0004116 133.7966 226.3593 14.88762040  4163
LEMUR-2-HCS-BAZUS       
1 67388U 26004AB  26039.57468899  .00005380  00000+0  57951-3 0  9995
2 67388  97.8019  40.3146 0003629 124.5552 235.6008 14.88860479  4160
TWILIGHT AC             
1 67389U 26004AC  26039.58219179  .00005651  00000+0  28764-3 0  9993
2 67389  97.4579  40.5002 0005248  76.5286 283.6532 15.17199818  4249
CONNECTA IOT-16         
1 67390U 26004AD  26039.51675632  .00009041  00000+0  46188-3 0  9995
2 67390  97.4584  40.4359 0005708  72.0551 288.1304 15.16898741  4234
FLAMINGO-1              
1 67391U 26004AE  26039.57867221  .00007642  00000+0  38667-3 0  9997
2 67391  97.4531  40.4871 0006724  65.6837 294.5098 15.17284686  4240
HAWK-13A                
1 67392U 26004AF  26039.50393751  .00023046  00000+0  11282-2 0  9992
2 67392  97.4420  40.3628 0006817  78.2978 281.9021 15.18164991  4238
HAWK-13C                
1 67393U 26004AG  26039.56942390  .00010577  00000+0  52224-3 0  9995
2 67393  97.4574  40.5402 0007447  71.5244 288.6799 15.18037188  4247
